[{"OBJECT_NAME":"GLOBALSTAR M075","OBJECT_ID":"2010-054E","EPOCH":"2026-04-05T12:50:59.475840","MEAN_MOTION":12.62265479,"ECCENTRICITY":6.492e-5,"INCLINATION":51.9975,"RA_OF_ASC_NODE":11.4004,"ARG_OF_PERICENTER":76.2384,"MEAN_ANOMALY":94.8362,"EPHEMERIS_TYPE":0,"CLASSIFICATION_TYPE":"U","NORAD_CAT_ID":37192,"ELEMENT_SET_NO":999,"REV_AT_EPOCH":71276,"BSTAR":0.00013502991,"MEAN_MOTION_DOT":-8.0e-7,"MEAN_MOTION_DDOT":0},{"OBJECT_NAME":"GLOBALSTAR M073","OBJECT_ID":"2010-054F","EPOCH":"2026-04-05T19:37:22.680768","MEAN_MOTION":12.62266154,"ECCENTRICITY":6.74e-5,"INCLINATION":52.0059,"RA_OF_ASC_NODE":284.5877,"ARG_OF_PERICENTER":114.9832,"MEAN_ANOMALY":258.1346,"EPHEMERIS_TYPE":0,"CLASSIFICATION_TYPE":"U","NORAD_CAT_ID":37193,"ELEMENT_SET_NO":999,"REV_AT_EPOCH":71479,"BSTAR":5.6292e-5,"MEAN_MOTION_DOT":-9.4e-7,"MEAN_MOTION_DDOT":0},{"OBJECT_NAME":"GLOBALSTAR M083","OBJECT_ID":"2011-033A","EPOCH":"2026-04-05T16:07:51.650112","MEAN_MOTION":12.62262229,"ECCENTRICITY":6.92e-5,"INCLINATION":51.9848,"RA_OF_ASC_NODE":233.3556,"ARG_OF_PERICENTER":133.1131,"MEAN_ANOMALY":240.3443,"EPHEMERIS_TYPE":0,"CLASSIFICATION_TYPE":"U","NORAD_CAT_ID":37739,"ELEMENT_SET_NO":999,"REV_AT_EPOCH":68379,"BSTAR":0.00010835,"MEAN_MOTION_DOT":-8.4e-7,"MEAN_MOTION_DDOT":0},{"OBJECT_NAME":"GLOBALSTAR M088","OBJECT_ID":"2011-033B","EPOCH":"2026-04-05T09:48:09.902016","MEAN_MOTION":12.62262896,"ECCENTRICITY":3.029e-5,"INCLINATION":52.02,"RA_OF_ASC_NODE":140.4124,"ARG_OF_PERICENTER":112.6237,"MEAN_ANOMALY":260.1254,"EPHEMERIS_TYPE":0,"CLASSIFICATION_TYPE":"U","NORAD_CAT_ID":37740,"ELEMENT_SET_NO":999,"REV_AT_EPOCH":67930,"BSTAR":0.00017124364,"MEAN_MOTION_DOT":-7.3e-7,"MEAN_MOTION_DDOT":0},{"OBJECT_NAME":"GLOBALSTAR M091","OBJECT_ID":"2011-033C","EPOCH":"2026-04-05T18:33:53.926848","MEAN_MOTION":12.62270841,"ECCENTRICITY":3.9e-5,"INCLINATION":51.9982,"RA_OF_ASC_NODE":102.3709,"ARG_OF_PERICENTER":102.7293,"MEAN_ANOMALY":71.0625,"EPHEMERIS_TYPE":0,"CLASSIFICATION_TYPE":"U","NORAD_CAT_ID":37741,"ELEMENT_SET_NO":999,"REV_AT_EPOCH":68013,"BSTAR":-3.0241e-5,"MEAN_MOTION_DOT":-1.09e-6,"MEAN_MOTION_DDOT":0},{"OBJECT_NAME":"GLOBALSTAR M085","OBJECT_ID":"2011-033D","EPOCH":"2026-04-05T14:25:57.617184","MEAN_MOTION":12.62269985,"ECCENTRICITY":5.54e-5,"INCLINATION":52.0135,"RA_OF_ASC_NODE":54.1215,"ARG_OF_PERICENTER":94.686,"MEAN_ANOMALY":76.482,"EPHEMERIS_TYPE":0,"CLASSIFICATION_TYPE":"U","NORAD_CAT_ID":37742,"ELEMENT_SET_NO":999,"REV_AT_EPOCH":68062,"BSTAR":-3.779e-5,"MEAN_MOTION_DOT":-1.11e-6,"MEAN_MOTION_DDOT":0},{"OBJECT_NAME":"GLOBALSTAR M081","OBJECT_ID":"2011-033E","EPOCH":"2026-04-05T15:04:10.001856","MEAN_MOTION":12.62263323,"ECCENTRICITY":3.15e-5,"INCLINATION":51.9964,"RA_OF_ASC_NODE":56.5603,"ARG_OF_PERICENTER":78.8501,"MEAN_ANOMALY":92.3616,"EPHEMERIS_TYPE":0,"CLASSIFICATION_TYPE":"U","NORAD_CAT_ID":37743,"ELEMENT_SET_NO":999,"REV_AT_EPOCH":68077,"BSTAR":-6.6679e-5,"MEAN_MOTION_DOT":-1.16e-6,"MEAN_MOTION_DDOT":0},{"OBJECT_NAME":"GLOBALSTAR M089","OBJECT_ID":"2011-033F","EPOCH":"2026-04-05T12:13:35.646240","MEAN_MOTION":12.62265469,"ECCENTRICITY":5.33e-5,"INCLINATION":51.9959,"RA_OF_ASC_NODE":11.0964,"ARG_OF_PERICENTER":45.8483,"MEAN_ANOMALY":127.077,"EPHEMERIS_TYPE":0,"CLASSIFICATION_TYPE":"U","NORAD_CAT_ID":37744,"ELEMENT_SET_NO":999,"REV_AT_EPOCH":68160,"BSTAR":0.0001328719,"MEAN_MOTION_DOT":-8.0e-7,"MEAN_MOTION_DDOT":0},{"OBJECT_NAME":"GLOBALSTAR M084","OBJECT_ID":"2011-080A","EPOCH":"2026-04-05T20:05:56.683104","MEAN_MOTION":12.62266102,"ECCENTRICITY":4.49e-5,"INCLINATION":51.9999,"RA_OF_ASC_NODE":237.5406,"ARG_OF_PERICENTER":100.4079,"MEAN_ANOMALY":63.7083,"EPHEMERIS_TYPE":0,"CLASSIFICATION_TYPE":"U","NORAD_CAT_ID":38040,"ELEMENT_SET_NO":999,"REV_AT_EPOCH":65962,"BSTAR":6.9601e-5,"MEAN_MOTION_DOT":-9.1e-7,"MEAN_MOTION_DDOT":0},{"OBJECT_NAME":"GLOBALSTAR M080","OBJECT_ID":"2011-080B","EPOCH":"2026-04-05T17:11:51.449280","MEAN_MOTION":12.62268062,"ECCENTRICITY":0.0001149,"INCLINATION":52.0051,"RA_OF_ASC_NODE":239.6023,"ARG_OF_PERICENTER":108.2746,"MEAN_ANOMALY":355.8449,"EPHEMERIS_TYPE":0,"CLASSIFICATION_TYPE":"U","NORAD_CAT_ID":38041,"ELEMENT_SET_NO":999,"REV_AT_EPOCH":65973,"BSTAR":8.7587e-5,"MEAN_MOTION_DOT":-8.8e-7,"MEAN_MOTION_DDOT":0},{"OBJECT_NAME":"GLOBALSTAR M082","OBJECT_ID":"2011-080C","EPOCH":"2026-04-05T13:45:37.066752","MEAN_MOTION":12.62268772,"ECCENTRICITY":8.87e-5,"INCLINATION":52.0069,"RA_OF_ASC_NODE":195.5313,"ARG_OF_PERICENTER":121.7955,"MEAN_ANOMALY":341.2132,"EPHEMERIS_TYPE":0,"CLASSIFICATION_TYPE":"U","NORAD_CAT_ID":38042,"ELEMENT_SET_NO":999,"REV_AT_EPOCH":66042,"BSTAR":0.00016689,"MEAN_MOTION_DOT":-7.4e-7,"MEAN_MOTION_DDOT":0},{"OBJECT_NAME":"GLOBALSTAR M092","OBJECT_ID":"2011-080D","EPOCH":"2026-04-05T20:45:26.993664","MEAN_MOTION":12.6226582,"ECCENTRICITY":7.54e-5,"INCLINATION":52.0083,"RA_OF_ASC_NODE":285.0383,"ARG_OF_PERICENTER":93.8773,"MEAN_ANOMALY":14.2205,"EPHEMERIS_TYPE":0,"CLASSIFICATION_TYPE":"U","NORAD_CAT_ID":38043,"ELEMENT_SET_NO":999,"REV_AT_EPOCH":65891,"BSTAR":0.00017511,"MEAN_MOTION_DOT":-7.2e-7,"MEAN_MOTION_DDOT":0},{"OBJECT_NAME":"GLOBALSTAR M090","OBJECT_ID":"2011-080E","EPOCH":"2026-04-05T13:55:25.685760","MEAN_MOTION":12.62267641,"ECCENTRICITY":5.85e-5,"INCLINATION":52.0122,"RA_OF_ASC_NODE":189.4429,"ARG_OF_PERICENTER":132.1501,"MEAN_ANOMALY":241.0594,"EPHEMERIS_TYPE":0,"CLASSIFICATION_TYPE":"U","NORAD_CAT_ID":38044,"ELEMENT_SET_NO":999,"REV_AT_EPOCH":66054,"BSTAR":0.00014835,"MEAN_MOTION_DOT":-7.7e-7,"MEAN_MOTION_DDOT":0},{"OBJECT_NAME":"GLOBALSTAR M086","OBJECT_ID":"2011-080F","EPOCH":"2026-04-05T12:34:27.654816","MEAN_MOTION":12.62284913,"ECCENTRICITY":8.164e-5,"INCLINATION":51.9892,"RA_OF_ASC_NODE":189.663,"ARG_OF_PERICENTER":221.7619,"MEAN_ANOMALY":151.8969,"EPHEMERIS_TYPE":0,"CLASSIFICATION_TYPE":"U","NORAD_CAT_ID":38045,"ELEMENT_SET_NO":999,"REV_AT_EPOCH":66048,"BSTAR":0.0002282639,"MEAN_MOTION_DOT":-6.3e-7,"MEAN_MOTION_DDOT":0},{"OBJECT_NAME":"GLOBALSTAR M097","OBJECT_ID":"2013-005A","EPOCH":"2026-04-05T09:24:28.573632","MEAN_MOTION":12.62260188,"ECCENTRICITY":3.42e-5,"INCLINATION":52.003,"RA_OF_ASC_NODE":104.9259,"ARG_OF_PERICENTER":122.6818,"MEAN_ANOMALY":237.4082,"EPHEMERIS_TYPE":0,"CLASSIFICATION_TYPE":"U","NORAD_CAT_ID":39072,"ELEMENT_SET_NO":999,"REV_AT_EPOCH":60771,"BSTAR":-5.5053731e-5,"MEAN_MOTION_DOT":-1.14e-6,"MEAN_MOTION_DDOT":0},{"OBJECT_NAME":"GLOBALSTAR M093","OBJECT_ID":"2013-005B","EPOCH":"2026-04-05T10:40:47.752032","MEAN_MOTION":12.62264409,"ECCENTRICITY":3.869e-5,"INCLINATION":52.0093,"RA_OF_ASC_NODE":98.0857,"ARG_OF_PERICENTER":143.9467,"MEAN_ANOMALY":216.1426,"EPHEMERIS_TYPE":0,"CLASSIFICATION_TYPE":"U","NORAD_CAT_ID":39073,"ELEMENT_SET_NO":999,"REV_AT_EPOCH":60767,"BSTAR":-2.9676326e-5,"MEAN_MOTION_DOT":-1.09e-6,"MEAN_MOTION_DDOT":0},{"OBJECT_NAME":"GLOBALSTAR M094","OBJECT_ID":"2013-005C","EPOCH":"2026-04-05T10:40:58.313568","MEAN_MOTION":12.62267229,"ECCENTRICITY":5.676e-5,"INCLINATION":51.9991,"RA_OF_ASC_NODE":12.2769,"ARG_OF_PERICENTER":97.9553,"MEAN_ANOMALY":262.1378,"EPHEMERIS_TYPE":0,"CLASSIFICATION_TYPE":"U","NORAD_CAT_ID":39074,"ELEMENT_SET_NO":999,"REV_AT_EPOCH":60928,"BSTAR":5.6409514e-5,"MEAN_MOTION_DOT":-9.4e-7,"MEAN_MOTION_DDOT":0}]
