GLOBALSTAR M075         
1 37192U 10054E   26095.53541060 -.00000080  00000+0  13503-3 0  9991
2 37192  51.9975  11.4004 0000649  76.2384  94.8362 12.62265479712768
GLOBALSTAR M073         
1 37193U 10054F   26095.81762362 -.00000094  00000+0  56292-4 0  9991
2 37193  52.0059 284.5877 0000674 114.9832 258.1346 12.62266154714794
GLOBALSTAR M083         
1 37739U 11033A   26095.67212558 -.00000084  00000+0  10835-3 0  9997
2 37739  51.9848 233.3556 0000692 133.1131 240.3443 12.62262229683790
GLOBALSTAR M088         
1 37740U 11033B   26095.40844794 -.00000073  00000+0  17124-3 0  9999
2 37740  52.0200 140.4124 0000302 112.6237 260.1254 12.62262896679304
GLOBALSTAR M091         
1 37741U 11033C   26095.77354082 -.00000109  00000+0 -30241-4 0  9993
2 37741  51.9982 102.3709 0000390 102.7293  71.0625 12.62270841680138
GLOBALSTAR M085         
1 37742U 11033D   26095.60136131 -.00000111  00000+0 -37790-4 0  9998
2 37742  52.0135  54.1215 0000554  94.6860  76.4820 12.62269985680625
GLOBALSTAR M081         
1 37743U 11033E   26095.62789354 -.00000116  00000+0 -66679-4 0  9995
2 37743  51.9964  56.5603 0000315  78.8501  92.3616 12.62263323680778
GLOBALSTAR M089         
1 37744U 11033F   26095.50944035 -.00000080  00000+0  13287-3 0  9997
2 37744  51.9959  11.0964 0000533  45.8483 127.0770 12.62265469681607
GLOBALSTAR M084         
1 38040U 11080A   26095.83746161 -.00000091  00000+0  69601-4 0  9999
2 38040  51.9999 237.5406 0000449 100.4079  63.7083 12.62266102659627
GLOBALSTAR M080         
1 38041U 11080B   26095.71656770 -.00000088  00000+0  87587-4 0  9992
2 38041  52.0051 239.6023 0001149 108.2746 355.8449 12.62268062659732
GLOBALSTAR M082         
1 38042U 11080C   26095.57334568 -.00000074  00000+0  16689-3 0  9994
2 38042  52.0069 195.5313 0000887 121.7955 341.2132 12.62268772660428
GLOBALSTAR M092         
1 38043U 11080D   26095.86489576 -.00000072  00000+0  17511-3 0  9990
2 38043  52.0083 285.0383 0000754  93.8773  14.2205 12.62265820658917
GLOBALSTAR M090         
1 38044U 11080E   26095.58015840 -.00000077  00000+0  14835-3 0  9990
2 38044  52.0122 189.4429 0000585 132.1501 241.0594 12.62267641660544
GLOBALSTAR M086         
1 38045U 11080F   26095.52393119 -.00000063  00000+0  22826-3 0  9997
2 38045  51.9892 189.6630 0000816 221.7619 151.8969 12.62284913660483
GLOBALSTAR M097         
1 39072U 13005A   26095.39199738 -.00000114  00000+0 -55054-4 0  9991
2 39072  52.0030 104.9259 0000342 122.6818 237.4082 12.62260188607713
GLOBALSTAR M093         
1 39073U 13005B   26095.44499713 -.00000109  00000+0 -29676-4 0  9999
2 39073  52.0093  98.0857 0000386 143.9467 216.1426 12.62264409607675
GLOBALSTAR M094         
1 39074U 13005C   26095.44511937 -.00000094  00000+0  56410-4 0  9991
2 39074  51.9991  12.2769 0000567  97.9553 262.1378 12.62267229609285
